NORAD_CAT_ID,OBJECT_NAME,OBJECT_TYPE,EPOCH,MEAN_MOTION,ECCENTRICITY,INCLINATION,RA_OF_ASC_NODE,ARG_OF_PERICENTER,MEAN_ANOMALY,BSTAR,MEAN_MOTION_DOT,MEAN_MOTION_DDOT,TLE_LINE0,TLE_LINE1,TLE_LINE2,SEMIMAJOR_AXIS,PERIOD,APOGEE,PERIGEE,DECAYED
53781.0,STARLINK-4462,PAYLOAD,2023-04-27 22:43:59,15.08880949,8.51e-05,53.2147,293.1281,88.7254,271.3836,0.0010644,0.00016712,0.0,0 STARLINK-4462,1 53781U 22111J   23117.94721360  .00016712  00000-0  10644-2 0  9991,2 53781  53.2147 293.1281 0000851  88.7254 271.3836 15.08880949 34865,6917.755,95.435,540.209,539.032,0.0
53781.0,STARLINK-4462,PAYLOAD,2023-04-28 20:59:23,15.08854187,7.93e-05,53.2153,288.9661,87.556,272.5523,0.00050094,7.697e-05,0.0,0 STARLINK-4462,1 53781U 22111J   23118.87457382  .00007697  00000-0  50094-3 0  9990,2 53781  53.2153 288.9661 0000793  87.5560 272.5523 15.08854187 35006,6917.837,95.437,540.251,539.153,0.0
53781.0,STARLINK-4462,PAYLOAD,2023-04-29 04:56:18,15.088423,0.0001112,53.213,287.4803,75.0088,285.1027,0.00044655,6.827e-05,0.0,0 STARLINK-4462,1 53781U 22111J   23119.20577441  .00006827  00000-0  44655-3 0  9997,2 53781  53.2130 287.4803 0001112  75.0088 285.1027 15.08842300 35054,6917.873,95.437,540.508,538.969,0.0
53781.0,STARLINK-4462,PAYLOAD,2023-04-29 11:17:51,15.0883883,0.0001364,53.2169,286.2903,86.0873,274.0275,0.00049636,7.62e-05,0.0,0 STARLINK-4462,1 53781U 22111J   23119.47073738  .00007620  00000-0  49636-3 0  9992,2 53781  53.2169 286.2903 0001364  86.0873 274.0275 15.08838830 35906,6917.884,95.438,540.693,538.805,0.0
53781.0,STARLINK-4462,PAYLOAD,2023-04-29 20:50:10,15.08850242,0.0001126,53.2145,284.5033,104.2193,255.8924,0.0002475,3.654e-05,0.0,0 STARLINK-4462,1 53781U 22111J   23119.86817336  .00003654  00000-0  24750-3 0  9998,2 53781  53.2145 284.5033 0001126 104.2193 255.8924 15.08850242 35964,6917.849,95.437,540.493,538.935,0.0
53781.0,STARLINK-4462,PAYLOAD,2023-04-30 14:19:25,15.0883837,0.0001054,53.2164,281.2334,97.7441,262.367,1.3405e-05,-7.4e-07,0.0,0 STARLINK-4462,1 53781U 22111J   23120.59681737 -.00000074  00000-0  13405-4 0  9994,2 53781  53.2164 281.2334 0001054  97.7441 262.3670 15.08838370 35267,6917.885,95.438,540.48,539.021,0.0
53781.0,STARLINK-4462,PAYLOAD,2023-04-30 22:16:20,15.08847262,9.24e-05,53.2156,279.7466,92.5182,267.5916,0.0001701,2.421e-05,0.0,0 STARLINK-4462,1 53781U 22111J   23120.92801341  .00002421  00000-0  17010-3 0  9998,2 53781  53.2156 279.7466 0000924  92.5182 267.5916 15.08847262 35312,6917.858,95.437,540.362,539.084,0.0
53781.0,STARLINK-4462,PAYLOAD,2023-05-01 10:59:26,15.0883363,9.1e-05,53.2162,277.368,90.7739,269.3357,-3.0571e-05,-7.74e-06,0.0,0 STARLINK-4462,1 53781U 22111J   23121.45794127 -.00000774  00000-0 -30571-4 0  9999,2 53781  53.2162 277.3680 0000910  90.7739 269.3357 15.08833630 36206,6917.9,95.438,540.394,539.135,0.0
53781.0,STARLINK-4462,PAYLOAD,2023-05-01 15:45:35,15.08838971,0.0001434,53.2172,276.4756,116.751,243.3629,3.0832e-05,2.03e-06,0.0,0 STARLINK-4462,1 53781U 22111J   23121.65665920  .00000203  00000-0  30832-4 0  9994,2 53781  53.2172 276.4756 0001434 116.7510 243.3629 15.08838971 35429,6917.884,95.438,540.741,538.757,0.0
53781.0,STARLINK-4462,PAYLOAD,2023-05-01 17:20:58,15.08840502,0.0001033,53.2158,276.1779,95.1744,264.9366,3.895e-05,3.32e-06,0.0,0 STARLINK-4462,1 53781U 22111J   23121.72289733  .00000332  00000-0  38950-4 0  9998,2 53781  53.2158 276.1779 0001033  95.1744 264.9366 15.08840502 36240,6917.879,95.438,540.458,539.029,0.0
53781.0,STARLINK-4462,PAYLOAD,2023-05-01 22:07:07,15.08846863,0.000102,53.216,275.2853,96.3225,263.7884,0.00012908,1.767e-05,0.0,0 STARLINK-4462,1 53781U 22111J   23121.92161408  .00001767  00000-0  12908-3 0  9995,2 53781  53.2160 275.2853 0001020  96.3225 263.7884 15.08846863 35460,6917.859,95.437,540.43,539.019,0.0
53781.0,STARLINK-4462,PAYLOAD,2023-05-02 12:25:36,15.08840241,9.97e-05,53.2154,272.6114,68.4183,291.6915,6.1941e-06,-1.89e-06,0.0,0 STARLINK-4462,1 53781U 22111J   23122.51777875 -.00000189  00000-0  61941-5 0  9993,2 53781  53.2154 272.6114 0000997  68.4183 291.6915 15.08840241 35558,6917.88,95.438,540.434,539.055,0.0
53781.0,STARLINK-4462,PAYLOAD,2023-05-02 14:00:59,15.0884064,0.0001019,53.2157,272.3146,57.5193,302.5898,1.2591e-05,-8.7e-07,0.0,0 STARLINK-4462,1 53781U 22111J   23122.58401892 -.00000087  00000-0  12591-4 0  9996,2 53781  53.2157 272.3146 0001019  57.5193 302.5898 15.08840640 36375,6917.878,95.438,540.448,539.039,0.0
53781.0,STARLINK-4462,PAYLOAD,2023-05-02 18:47:08,15.08847867,0.0001033,53.216,271.4213,74.9495,285.1611,0.00013347,1.837e-05,0.0,0 STARLINK-4462,1 53781U 22111J   23122.78273504  .00001837  00000-0  13347-3 0  9997,2 53781  53.2160 271.4213 0001033  74.9495 285.1611 15.08847867 36409,6917.856,95.437,540.436,539.007,0.0
53781.0,STARLINK-4462,PAYLOAD,2023-05-03 13:51:46,15.08838498,0.0001021,53.2168,267.8524,83.7168,276.394,3.7443e-05,3.08e-06,0.0,0 STARLINK-4462,1 53781U 22111J   23123.57762158  .00000308  00000-0  37443-4 0  9999,2 53781  53.2168 267.8524 0001021  83.7168 276.3940 15.08838498 35713,6917.885,95.438,540.456,539.044,0.0
53781.0,STARLINK-4462,PAYLOAD,2023-05-03 17:02:32,15.08839842,0.0001065,53.2168,267.2572,85.566,274.5454,5.5029e-05,5.88e-06,0.0,0 STARLINK-4462,1 53781U 22111J   23123.71010096  .00000588  00000-0  55029-4 0  9992,2 53781  53.2168 267.2572 0001065  85.5660 274.5454 15.08839842 36541,6917.881,95.438,540.483,539.009,0.0
53781.0,STARLINK-4462,PAYLOAD,2023-05-04 13:42:33,15.08844952,7.62e-05,53.2162,263.3915,96.0063,264.1016,0.00024025,3.538e-05,0.0,0 STARLINK-4462,1 53781U 22111J   23124.57121908  .00003538  00000-0  24025-3 0  9991,2 53781  53.2162 263.3915 0000762  96.0063 264.1016 15.08844952 36671,6917.865,95.437,540.257,539.203,0.0
53781.0,STARLINK-4462,PAYLOAD,2023-05-04 18:28:42,15.08853888,7.23e-05,53.2154,262.4993,84.9489,275.1586,0.00067817,0.00010526,0.0,0 STARLINK-4462,1 53781U 22111J   23124.76993725  .00010526  00000-0  67817-3 0  9997,2 53781  53.2154 262.4993 0000723  84.9489 275.1586 15.08853888 35898,6917.838,95.437,540.203,539.203,0.0
53781.0,STARLINK-4462,PAYLOAD,2023-05-05 08:47:11,15.08840888,0.000136,53.2157,259.8262,73.2967,286.8175,0.00024274,3.577e-05,0.0,0 STARLINK-4462,1 53781U 22111J   23125.36610324  .00003577  00000-0  24274-3 0  9993,2 53781  53.2157 259.8262 0001360  73.2967 286.8175 15.08840888 35989,6917.878,95.437,540.684,538.802,0.0
53781.0,STARLINK-4462,PAYLOAD,2023-05-05 18:19:30,15.08842077,0.0001262,53.2163,258.0401,75.6507,284.4625,0.00016682,2.368e-05,0.0,0 STARLINK-4462,1 53781U 22111J   23125.76354398  .00002368  00000-0  16682-3 0  9994,2 53781  53.2163 258.0401 0001262  75.6507 284.4625 15.08842077 36852,6917.874,95.437,540.612,538.866,0.0
53781.0,STARLINK-4462,PAYLOAD,2023-05-06 02:16:26,15.08839208,0.0001329,53.2161,256.5535,73.8705,286.2433,7.8676e-05,9.64e-06,0.0,0 STARLINK-4462,1 53781U 22111J   23126.09474597  .00000964  00000-0  78676-4 0  9997,2 53781  53.2161 256.5535 0001329  73.8705 286.2433 15.08839208 36090,6917.883,95.438,540.667,538.828,0.0
53781.0,STARLINK-4462,PAYLOAD,2023-05-06 13:24:07,15.0884593,0.0001048,53.2156,254.4716,83.3451,276.7661,0.00020372,2.956e-05,0.0,0 STARLINK-4462,1 53781U 22111J   23126.55842444  .00002956  00000-0  20372-3 0  9990,2 53781  53.2156 254.4716 0001048  83.3451 276.7661 15.08845930 36977,6917.862,95.437,540.452,539.002,0.0
53781.0,STARLINK-4462,PAYLOAD,2023-05-06 14:59:30,15.08849249,9.96e-05,53.2152,254.1728,90.8411,269.2695,0.00029827,4.464e-05,0.0,0 STARLINK-4462,1 53781U 22111J   23126.62466238  .00004464  00000-0  29827-3 0  9991,2 53781  53.2152 254.1728 0000996  90.8411 269.2695 15.08849249 36176,6917.852,95.437,540.406,539.028,0.0
53781.0,STARLINK-4462,PAYLOAD,2023-05-07 13:14:55,15.08841856,0.0001097,53.216,250.0116,65.6489,294.4618,0.00020436,2.966e-05,0.0,0 STARLINK-4462,1 53781U 22111J   23127.55202772  .00002966  00000-0  20436-3 0  9997,2 53781  53.2160 250.0116 0001097  65.6489 294.4618 15.08841856 36316,6917.875,95.437,540.499,538.981,0.0
53781.0,STARLINK-4462,PAYLOAD,2023-05-07 14:50:18,15.08842781,0.0001044,53.2157,249.7138,71.0992,289.0113,0.00018959,2.731e-05,0.0,0 STARLINK-4462,1 53781U 22111J   23127.61826667  .00002731  00000-0  18959-3 0  9996,2 53781  53.2157 249.7138 0001044  71.0992 289.0113 15.08842781 37132,6917.872,95.437,540.459,539.015,0.0
53781.0,STARLINK-4462,PAYLOAD,2023-05-08 14:41:05,15.08845534,9.74e-05,53.215,245.2533,93.3317,266.7786,0.00016523,2.343e-05,0.0,0 STARLINK-4462,1 53781U 22111J   23128.61186424  .00002343  00000-0  16523-3 0  9991,2 53781  53.2150 245.2533 0000974  93.3317 266.7786 15.08845534 36477,6917.863,95.437,540.402,539.055,0.0
53781.0,STARLINK-4462,PAYLOAD,2023-05-09 12:56:29,15.08839498,0.0001008,53.2156,241.0898,90.8212,269.2896,6.8243e-05,7.98e-06,0.0,0 STARLINK-4462,1 53781U 22111J   23129.53922708  .00000798  00000-0  68243-4 0  9995,2 53781  53.2156 241.0898 0001008  90.8212 269.2896 15.08839498 37424,6917.882,95.438,540.444,539.05,0.0
53781.0,STARLINK-4462,PAYLOAD,2023-05-10 12:47:16,15.08839773,0.0001482,53.2171,236.6369,123.4687,236.6447,-9.3948e-05,-1.783e-05,0.0,0 STARLINK-4462,1 53781U 22111J   23130.53282832 -.00001783  00000-0 -93948-4 0  9991,2 53781  53.2171 236.6369 0001482 123.4687 236.6447 15.08839773 37571,6917.881,95.438,540.771,538.721,0.0
53781.0,STARLINK-4462,PAYLOAD,2023-05-10 17:33:25,15.08843741,0.0001235,53.2166,235.7367,89.9172,270.1962,0.0001942,2.804e-05,0.0,0 STARLINK-4462,1 53781U 22111J   23130.73154681  .00002804  00000-0  19420-3 0  9998,2 53781  53.2166 235.7367 0001235  89.9172 270.1962 15.08843741 36792,6917.869,95.437,540.588,538.88,0.0
53781.0,STARLINK-4462,PAYLOAD,2023-05-10 23:54:58,15.0883412,0.0001017,53.2164,234.5507,98.9814,261.1293,8.6439e-06,-1.5e-06,0.0,0 STARLINK-4462,1 53781U 22111J   23130.99651151 -.00000150  00000-0  86439-5 0  9999,2 53781  53.2164 234.5507 0001017  98.9814 261.1293 15.08834120 36837,6917.898,95.438,540.467,539.06,0.0
